STARLINK-5068           
1 55423U 23014AJ  26068.44657916 -.00000491  00000+0 -33396-4 0  9996
2 55423  69.9991  85.1570 0003379 269.5030  90.5742 14.98327616171527
ICEYE-X48               
1 63253U 25052AV  26068.70765702  .00004541  00000+0  39589-3 0  9999
2 63253  97.6979 322.3976 0002688 141.7433 218.3980 14.97356709 53782
